CCSDS_OMM_VERS = 2.0
CREATION_DATE  = 
ORIGINATOR     = 

OBJECT_NAME    = UNKNOWN
OBJECT_ID      = 
CENTER_NAME    = EARTH
REF_FRAME      = TEME
TIME_SYSTEM    = UTC
MEAN_ELEMENT_THEORY = SGP/SGP4

EPOCH          = 2026-01-13T11:04:12.775008
MEAN_MOTION    = 12.37487386
ECCENTRICITY   = .0340742
INCLINATION    = 101.8150
RA_OF_ASC_NODE = 13.3176
ARG_OF_PERICENTER = 86.3314
MEAN_ANOMALY   = 277.6641

EPHEMERIS_TYPE = 0
CLASSIFICATION_TYPE = U
NORAD_CAT_ID   = 81614
ELEMENT_SET_NO = 999
REV_AT_EPOCH   = 54190
BSTAR          = .33358E-1
MEAN_MOTION_DOT = .5225E-4
MEAN_MOTION_DDOT = 0

CCSDS_OMM_VERS = 2.0
CREATION_DATE  = 
ORIGINATOR     = 

OBJECT_NAME    = UNKNOWN
OBJECT_ID      = 
CENTER_NAME    = EARTH
REF_FRAME      = TEME
TIME_SYSTEM    = UTC
MEAN_ELEMENT_THEORY = SGP/SGP4

EPOCH          = 2026-01-20T08:10:11.261568
MEAN_MOTION    = 13.34202151
ECCENTRICITY   = .076898
INCLINATION    = 65.8293
RA_OF_ASC_NODE = 332.1689
ARG_OF_PERICENTER = 118.5593
MEAN_ANOMALY   = 249.5039

EPHEMERIS_TYPE = 0
CLASSIFICATION_TYPE = U
NORAD_CAT_ID   = 81615
ELEMENT_SET_NO = 999
REV_AT_EPOCH   = 58801
BSTAR          = .66786E-3
MEAN_MOTION_DOT = .1804E-4
MEAN_MOTION_DDOT = 0

CCSDS_OMM_VERS = 2.0
CREATION_DATE  = 
ORIGINATOR     = 

OBJECT_NAME    = UNKNOWN
OBJECT_ID      = 
CENTER_NAME    = EARTH
REF_FRAME      = TEME
TIME_SYSTEM    = UTC
MEAN_ELEMENT_THEORY = SGP/SGP4

EPOCH          = 2026-01-19T10:02:15.748512
MEAN_MOTION    = 12.57563958
ECCENTRICITY   = .0037189
INCLINATION    = 101.2608
RA_OF_ASC_NODE = 197.2290
ARG_OF_PERICENTER = 172.1547
MEAN_ANOMALY   = 188.0119

EPHEMERIS_TYPE = 0
CLASSIFICATION_TYPE = U
NORAD_CAT_ID   = 81617
ELEMENT_SET_NO = 999
REV_AT_EPOCH   = 55784
BSTAR          = .20692E-2
MEAN_MOTION_DOT = .306E-5
MEAN_MOTION_DDOT = 0

CCSDS_OMM_VERS = 2.0
CREATION_DATE  = 
ORIGINATOR     = 

OBJECT_NAME    = UNKNOWN
OBJECT_ID      = 
CENTER_NAME    = EARTH
REF_FRAME      = TEME
TIME_SYSTEM    = UTC
MEAN_ELEMENT_THEORY = SGP/SGP4

EPOCH          = 2026-01-15T03:40:57.524448
MEAN_MOTION    = 14.71574169
ECCENTRICITY   = .0068407
INCLINATION    = 66.9763
RA_OF_ASC_NODE = 74.5733
ARG_OF_PERICENTER = 211.6333
MEAN_ANOMALY   = 148.0670

EPHEMERIS_TYPE = 0
CLASSIFICATION_TYPE = U
NORAD_CAT_ID   = 81624
ELEMENT_SET_NO = 999
REV_AT_EPOCH   = 64462
BSTAR          = .4795E-3
MEAN_MOTION_DOT = .2986E-4
MEAN_MOTION_DDOT = 0

CCSDS_OMM_VERS = 2.0
CREATION_DATE  = 
ORIGINATOR     = 

OBJECT_NAME    = UNKNOWN
OBJECT_ID      = 
CENTER_NAME    = EARTH
REF_FRAME      = TEME
TIME_SYSTEM    = UTC
MEAN_ELEMENT_THEORY = SGP/SGP4

EPOCH          = 2026-01-20T08:36:48.636864
MEAN_MOTION    = 12.57241494
ECCENTRICITY   = .0976874
INCLINATION    = 65.8260
RA_OF_ASC_NODE = 52.9741
ARG_OF_PERICENTER = 61.8987
MEAN_ANOMALY   = 307.7266

EPHEMERIS_TYPE = 0
CLASSIFICATION_TYPE = U
NORAD_CAT_ID   = 81640
ELEMENT_SET_NO = 999
REV_AT_EPOCH   = 51493
BSTAR          = .3353E-3
MEAN_MOTION_DOT = .305E-5
MEAN_MOTION_DDOT = 0

CCSDS_OMM_VERS = 2.0
CREATION_DATE  = 
ORIGINATOR     = 

OBJECT_NAME    = UNKNOWN
OBJECT_ID      = 
CENTER_NAME    = EARTH
REF_FRAME      = TEME
TIME_SYSTEM    = UTC
MEAN_ELEMENT_THEORY = SGP/SGP4

EPOCH          = 2026-01-19T04:51:36.916704
MEAN_MOTION    = 13.44439879
ECCENTRICITY   = .0366475
INCLINATION    = 102.1454
RA_OF_ASC_NODE = 280.4635
ARG_OF_PERICENTER = 276.2805
MEAN_ANOMALY   = 240.6884

EPHEMERIS_TYPE = 0
CLASSIFICATION_TYPE = U
NORAD_CAT_ID   = 81652
ELEMENT_SET_NO = 999
REV_AT_EPOCH   = 58368
BSTAR          = .49642E-3
MEAN_MOTION_DOT = .369E-5
MEAN_MOTION_DDOT = 0

CCSDS_OMM_VERS = 2.0
CREATION_DATE  = 
ORIGINATOR     = 

OBJECT_NAME    = UNKNOWN
OBJECT_ID      = 
CENTER_NAME    = EARTH
REF_FRAME      = TEME
TIME_SYSTEM    = UTC
MEAN_ELEMENT_THEORY = SGP/SGP4

EPOCH          = 2026-01-21T05:51:39.612672
MEAN_MOTION    = 14.48239045
ECCENTRICITY   = .0017109
INCLINATION    = 74.0415
RA_OF_ASC_NODE = 322.6201
ARG_OF_PERICENTER = 247.6637
MEAN_ANOMALY   = 112.2710

EPHEMERIS_TYPE = 0
CLASSIFICATION_TYPE = U
NORAD_CAT_ID   = 81667
ELEMENT_SET_NO = 999
REV_AT_EPOCH   = 46236
BSTAR          = .18678E-2
MEAN_MOTION_DOT = .6964E-4
MEAN_MOTION_DDOT = 0

CCSDS_OMM_VERS = 2.0
CREATION_DATE  = 
ORIGINATOR     = 

OBJECT_NAME    = UNKNOWN
OBJECT_ID      = 
CENTER_NAME    = EARTH
REF_FRAME      = TEME
TIME_SYSTEM    = UTC
MEAN_ELEMENT_THEORY = SGP/SGP4

EPOCH          = 2026-01-13T01:10:07.129632
MEAN_MOTION    = 14.09999781
ECCENTRICITY   = .002903
INCLINATION    = 66.8233
RA_OF_ASC_NODE = 285.4302
ARG_OF_PERICENTER = 211.9398
MEAN_ANOMALY   = 162.1843

EPHEMERIS_TYPE = 0
CLASSIFICATION_TYPE = U
NORAD_CAT_ID   = 81674
ELEMENT_SET_NO = 999
REV_AT_EPOCH   = 61813
BSTAR          = .46078E-3
MEAN_MOTION_DOT = .736E-5
MEAN_MOTION_DDOT = 0

CCSDS_OMM_VERS = 2.0
CREATION_DATE  = 
ORIGINATOR     = 

OBJECT_NAME    = UNKNOWN
OBJECT_ID      = 
CENTER_NAME    = EARTH
REF_FRAME      = TEME
TIME_SYSTEM    = UTC
MEAN_ELEMENT_THEORY = SGP/SGP4

EPOCH          = 2026-01-21T02:00:06.319872
MEAN_MOTION    = 14.57648536
ECCENTRICITY   = .0022944
INCLINATION    = 81.2144
RA_OF_ASC_NODE = 253.8739
ARG_OF_PERICENTER = 175.4945
MEAN_ANOMALY   = 184.6463

EPHEMERIS_TYPE = 0
CLASSIFICATION_TYPE = U
NORAD_CAT_ID   = 81683
ELEMENT_SET_NO = 999
REV_AT_EPOCH   = 64159
BSTAR          = .88978E-3
MEAN_MOTION_DOT = .4085E-4
MEAN_MOTION_DDOT = 0

CCSDS_OMM_VERS = 2.0
CREATION_DATE  = 
ORIGINATOR     = 

OBJECT_NAME    = UNKNOWN
OBJECT_ID      = 
CENTER_NAME    = EARTH
REF_FRAME      = TEME
TIME_SYSTEM    = UTC
MEAN_ELEMENT_THEORY = SGP/SGP4

EPOCH          = 2026-01-19T09:42:38.184768
MEAN_MOTION    = 12.25937419
ECCENTRICITY   = .036423
INCLINATION    = 101.0955
RA_OF_ASC_NODE = 81.7032
ARG_OF_PERICENTER = 12.3158
MEAN_ANOMALY   = 348.6521

EPHEMERIS_TYPE = 0
CLASSIFICATION_TYPE = U
NORAD_CAT_ID   = 81693
ELEMENT_SET_NO = 999
REV_AT_EPOCH   = 97238
BSTAR          = .53343E-2
MEAN_MOTION_DOT = .701E-5
MEAN_MOTION_DDOT = 0

CCSDS_OMM_VERS = 2.0
CREATION_DATE  = 
ORIGINATOR     = 

OBJECT_NAME    = UNKNOWN
OBJECT_ID      = 
CENTER_NAME    = EARTH
REF_FRAME      = TEME
TIME_SYSTEM    = UTC
MEAN_ELEMENT_THEORY = SGP/SGP4

EPOCH          = 2026-01-21T12:10:43.737888
MEAN_MOTION    = 14.40574093
ECCENTRICITY   = .000467
INCLINATION    = 71.0014
RA_OF_ASC_NODE = 300.4634
ARG_OF_PERICENTER = 184.2952
MEAN_ANOMALY   = 175.8145

EPHEMERIS_TYPE = 0
CLASSIFICATION_TYPE = U
NORAD_CAT_ID   = 81745
ELEMENT_SET_NO = 999
REV_AT_EPOCH   = 63547
BSTAR          = .14076E-2
MEAN_MOTION_DOT = .4441E-4
MEAN_MOTION_DDOT = 0

CCSDS_OMM_VERS = 2.0
CREATION_DATE  = 
ORIGINATOR     = 

OBJECT_NAME    = UNKNOWN
OBJECT_ID      = 
CENTER_NAME    = EARTH
REF_FRAME      = TEME
TIME_SYSTEM    = UTC
MEAN_ELEMENT_THEORY = SGP/SGP4

EPOCH          = 2026-01-21T10:45:55.356768
MEAN_MOTION    = 14.41450494
ECCENTRICITY   = .0016385
INCLINATION    = 82.9192
RA_OF_ASC_NODE = 191.3631
ARG_OF_PERICENTER = 128.3529
MEAN_ANOMALY   = 231.9140

EPHEMERIS_TYPE = 0
CLASSIFICATION_TYPE = U
NORAD_CAT_ID   = 81775
ELEMENT_SET_NO = 999
REV_AT_EPOCH   = 63099
BSTAR          = .52263E-2
MEAN_MOTION_DOT = .17022E-3
MEAN_MOTION_DDOT = 0

