UNKNOWN                 
1 81614U          26013.46125897  .00005225  00000+0  33358-1 0  9990
2 81614 101.8150  13.3176 0340742  86.3314 277.6641 12.37487386541905
UNKNOWN                 
1 81615U          26020.34040812  .00001804  00000+0  66786-3 0  9991
2 81615  65.8293 332.1689 0768980 118.5593 249.5039 13.34202151588014
UNKNOWN                 
1 81617U          26019.41823783  .00000306  00000+0  20692-2 0  9996
2 81617 101.2608 197.2290 0037189 172.1547 188.0119 12.57563958557846
UNKNOWN                 
1 81624U          26015.15344357  .00002986  00000+0  47950-3 0  9999
2 81624  66.9763  74.5733 0068407 211.6333 148.0670 14.71574169644626
UNKNOWN                 
1 81640U          26020.35889626  .00000305  00000+0  33530-3 0  9990
2 81640  65.8260  52.9741 0976874  61.8987 307.7266 12.57241494514938
UNKNOWN                 
1 81652U          26019.20251061  .00000369  00000+0  49642-3 0  9992
2 81652 102.1454 280.4635 0366475 276.2805 240.6884 13.44439879583684
UNKNOWN                 
1 81667U          26021.24420848  .00006964  00000+0  18678-2 0  9997
2 81667  74.0415 322.6201 0017109 247.6637 112.2710 14.48239045462365
UNKNOWN                 
1 81674U          26013.04869363  .00000736  00000+0  46078-3 0  9990
2 81674  66.8233 285.4302 0029030 211.9398 162.1843 14.09999781618138
UNKNOWN                 
1 81683U          26021.08340648  .00004085  00000+0  88978-3 0  9999
2 81683  81.2144 253.8739 0022944 175.4945 184.6463 14.57648536641597
UNKNOWN                 
1 81693U          26019.40460862  .00000701  00000+0  53343-2 0  9992
2 81693 101.0955  81.7032 0364230  12.3158 348.6521 12.25937419972380
UNKNOWN                 
1 81745U          26021.50745067  .00004441  00000+0  14076-2 0  9992
2 81745  71.0014 300.4634 0004670 184.2952 175.8145 14.40574093635471
UNKNOWN                 
1 81775U          26021.44855737  .00017022  00000+0  52263-2 0  9993
2 81775  82.9192 191.3631 0016385 128.3529 231.9140 14.41450494630991
